[
    {
        "Altitude(m)": 622200.1037819767,
        "Argument of Periapsis(deg)": 0.0,
        "Eccentricity": 0.0,
        "Inclination(deg)": 60.0,
        "Latitude(deg)": -52.16252879125164,
        "Longitude(deg)": 172.36062773901415,
        "Mean Anomaly(deg)": -65.45449999999998,
        "RAAN(deg)": 320.0,
        "Satellite Name": "Test1 1426",
        "Satellite Number": 1426,
        "Semi-Major Axis(m)": 6980739.136638005,
        "Time(s)": 0
    },
    {
        "Altitude(m)": 622058.2719955657,
        "Argument of Periapsis(deg)": 0.00010418945913296404,
        "Eccentricity": 0.0,
        "Inclination(deg)": 60.0,
        "Latitude(deg)": -51.79927975003305,
        "Longitude(deg)": 173.12868709370937,
        "Mean Anomaly(deg)": -64.83439385453813,
        "RAAN(deg)": 319.9995799508602,
        "Satellite Name": "Test1 1426",
        "Satellite Number": 1426,
        "Semi-Major Axis(m)": 6980739.136638005,
        "Time(s)": 10
    },
    {
        "Altitude(m)": 621913.7069177383,
        "Argument of Periapsis(deg)": 0.0002083789182659281,
        "Eccentricity": 0.0,
        "Inclination(deg)": 60.0,
        "Latitude(deg)": -51.430519111715434,
        "Longitude(deg)": 173.88376770720055,
        "Mean Anomaly(deg)": -64.21428770907627,
        "RAAN(deg)": 319.9991599017205,
        "Satellite Name": "Test1 1426",
        "Satellite Number": 1426,
        "Semi-Major Axis(m)": 6980739.136638005,
        "Time(s)": 20
    },
    {
        "Altitude(m)": 621766.4649876493,
        "Argument of Periapsis(deg)": 0.00031256837739889213,
        "Eccentricity": 0.0,
        "Inclination(deg)": 60.0,
        "Latitude(deg)": -51.05640399700861,
        "Longitude(deg)": 174.62605927341005,
        "Mean Anomaly(deg)": -63.59418156361448,
        "RAAN(deg)": 319.9987398525808,
        "Satellite Name": "Test1 1426",
        "Satellite Number": 1426,
        "Semi-Major Axis(m)": 6980739.136638005,
        "Time(s)": 30
    },
    {
        "Altitude(m)": 621616.6036608625,
        "Argument of Periapsis(deg)": 0.0004167578365318562,
        "Eccentricity": 0.0,
        "Inclination(deg)": 60.0,
        "Latitude(deg)": -50.677087836132024,
        "Longitude(deg)": 175.35575925191995,
        "Mean Anomaly(deg)": -62.974075418152616,
        "RAAN(deg)": 319.998319803441,
        "Satellite Name": "Test1 1426",
        "Satellite Number": 1426,
        "Semi-Major Axis(m)": 6980739.136638005,
        "Time(s)": 40
    },
    {
        "Altitude(m)": 621464.1813847423,
        "Argument of Periapsis(deg)": 0.0005209472956648203,
        "Eccentricity": 0.0,
        "Inclination(deg)": 60.0,
        "Latitude(deg)": -50.29272034180579,
        "Longitude(deg)": 176.07307081813175,
        "Mean Anomaly(deg)": -62.35396927269076,
        "RAAN(deg)": 319.9978997543013,
        "Satellite Name": "Test1 1426",
        "Satellite Number": 1426,
        "Semi-Major Axis(m)": 6980739.136638005,
        "Time(s)": 50
    },
    {
        "Altitude(m)": 621309.2575734123,
        "Argument of Periapsis(deg)": 0.0006251367547977843,
        "Eccentricity": 0.0,
        "Inclination(deg)": 60.0,
        "Latitude(deg)": -49.90344749679796,
        "Longitude(deg)": 176.77820239564633,
        "Mean Anomaly(deg)": -61.73386312722902,
        "RAAN(deg)": 319.99747970516154,
        "Satellite Name": "Test1 1426",
        "Satellite Number": 1426,
        "Semi-Major Axis(m)": 6980739.136638005,
        "Time(s)": 60
    },
    {
        "Altitude(m)": 621151.8925822732,
        "Argument of Periapsis(deg)": 0.0007293262139307483,
        "Eccentricity": 0.0,
        "Inclination(deg)": 60.0,
        "Latitude(deg)": -49.509411554623746,
        "Longitude(deg)": 177.47136725658413,
        "Mean Anomaly(deg)": -61.11375698176711,
        "RAAN(deg)": 319.9970596560218,
        "Satellite Name": "Test1 1426",
        "Satellite Number": 1426,
        "Semi-Major Axis(m)": 6980739.136638005,
        "Time(s)": 70
    },
    {
        "Altitude(m)": 620992.1476820905,
        "Argument of Periapsis(deg)": 0.0008335156730637124,
        "Eccentricity": 0.0,
        "Inclination(deg)": 60.0,
        "Latitude(deg)": -49.11075105206167,
        "Longitude(deg)": 178.15278167515007,
        "Mean Anomaly(deg)": -60.493650836305356,
        "RAAN(deg)": 319.99663960688207,
        "Satellite Name": "Test1 1426",
        "Satellite Number": 1426,
        "Semi-Major Axis(m)": 6980739.136638005,
        "Time(s)": 80
    },
    {
        "Altitude(m)": 620830.0850326848,
        "Argument of Periapsis(deg)": 0.0009377051321966765,
        "Eccentricity": 0.0,
        "Inclination(deg)": 60.0,
        "Latitude(deg)": -48.70760083223048,
        "Longitude(deg)": 178.82266465803656,
        "Mean Anomaly(deg)": -59.87354469084352,
        "RAAN(deg)": 319.9962195577423,
        "Satellite Name": "Test1 1426",
        "Satellite Number": 1426,
        "Semi-Major Axis(m)": 6980739.136638005,
        "Time(s)": 90
    },
    {
        "Altitude(m)": 620665.7676562116,
        "Argument of Periapsis(deg)": 0.0010418945913296407,
        "Eccentricity": 0.0,
        "Inclination(deg)": 60.0,
        "Latitude(deg)": -48.30009207704293,
        "Longitude(deg)": 179.48123773636877,
        "Mean Anomaly(deg)": -59.253438545381655,
        "RAAN(deg)": 319.99579950860254,
        "Satellite Name": "Test1 1426",
        "Satellite Number": 1426,
        "Semi-Major Axis(m)": 6980739.136638005,
        "Time(s)": 100
    },
    {
        "Altitude(m)": 620499.2594100395,
        "Argument of Periapsis(deg)": 0.0011460840504626045,
        "Eccentricity": 0.0,
        "Inclination(deg)": 60.0,
        "Latitude(deg)": -47.8883523479248,
        "Longitude(deg)": -179.87127669629186,
        "Mean Anomaly(deg)": -58.63333239991985,
        "RAAN(deg)": 319.99537945946287,
        "Satellite Name": "Test1 1426",
        "Satellite Number": 1426,
        "Semi-Major Axis(m)": 6980739.136638005,
        "Time(s)": 110
    },
    {
        "Altitude(m)": 620330.6249592509,
        "Argument of Periapsis(deg)": 0.0012502735095955685,
        "Eccentricity": 0.0,
        "Inclination(deg)": 60.0,
        "Latitude(deg)": -47.47250563377435,
        "Longitude(deg)": -179.2346554768987,
        "Mean Anomaly(deg)": -58.013226254458,
        "RAAN(deg)": 319.9949594103231,
        "Satellite Name": "Test1 1426",
        "Satellite Number": 1426,
        "Semi-Major Axis(m)": 6980739.136638005,
        "Time(s)": 120
    },
    {
        "Altitude(m)": 620159.9297487937,
        "Argument of Periapsis(deg)": 0.0013544629687285324,
        "Eccentricity": 0.0,
        "Inclination(deg)": 60.0,
        "Latitude(deg)": -47.05267240520476,
        "Longitude(deg)": -178.60867471254548,
        "Mean Anomaly(deg)": -57.39312010899625,
        "RAAN(deg)": 319.99453936118334,
        "Satellite Name": "Test1 1426",
        "Satellite Number": 1426,
        "Semi-Major Axis(m)": 6980739.136638005,
        "Time(s)": 130
    },
    {
        "Altitude(m)": 619987.2399752315,
        "Argument of Periapsis(deg)": 0.0014586524278614966,
        "Eccentricity": 0.0,
        "Inclination(deg)": 60.0,
        "Latitude(deg)": -46.62896967418354,
        "Longitude(deg)": -177.99311128253373,
        "Mean Anomaly(deg)": -56.773013963534396,
        "RAAN(deg)": 319.9941193120436,
        "Satellite Name": "Test1 1426",
        "Satellite Number": 1426,
        "Semi-Major Axis(m)": 6980739.136638005,
        "Time(s)": 140
    },
    {
        "Altitude(m)": 619812.6225581935,
        "Argument of Periapsis(deg)": 0.0015628418869944607,
        "Eccentricity": 0.0,
        "Inclination(deg)": 60.0,
        "Latitude(deg)": -46.20151105826527,
        "Longitude(deg)": -177.3877427800474,
        "Mean Anomaly(deg)": -56.15290781807259,
        "RAAN(deg)": 319.9936992629039,
        "Satellite Name": "Test1 1426",
        "Satellite Number": 1426,
        "Semi-Major Axis(m)": 6980739.136638005,
        "Time(s)": 150
    },
    {
        "Altitude(m)": 619636.1451114493,
        "Argument of Periapsis(deg)": 0.0016670313461274247,
        "Eccentricity": 0.0,
        "Inclination(deg)": 60.0,
        "Latitude(deg)": -45.77040684867137,
        "Longitude(deg)": -176.7923474091919,
        "Mean Anomaly(deg)": -55.53280167261074,
        "RAAN(deg)": 319.99327921376414,
        "Satellite Name": "Test1 1426",
        "Satellite Number": 1426,
        "Semi-Major Axis(m)": 6980739.136638005,
        "Time(s)": 160
    },
    {
        "Altitude(m)": 619457.8759136845,
        "Argument of Periapsis(deg)": 0.0017712208052603888,
        "Eccentricity": 0.0,
        "Inclination(deg)": 60.0,
        "Latitude(deg)": -45.33576408153837,
        "Longitude(deg)": -176.20670535312007,
        "Mean Anomaly(deg)": -54.91269552714889,
        "RAAN(deg)": 319.99285916462435,
        "Satellite Name": "Test1 1426",
        "Satellite Number": 1426,
        "Semi-Major Axis(m)": 6980739.136638005,
        "Time(s)": 170
    },
    {
        "Altitude(m)": 619277.8838789514,
        "Argument of Periapsis(deg)": 0.001875410264393353,
        "Eccentricity": 0.0,
        "Inclination(deg)": 60.0,
        "Latitude(deg)": -44.897686611723984,
        "Longitude(deg)": -175.63059859027578,
        "Mean Anomaly(deg)": -54.29258938168704,
        "RAAN(deg)": 319.9924391154846,
        "Satellite Name": "Test1 1426",
        "Satellite Number": 1426,
        "Semi-Major Axis(m)": 6980739.136638005,
        "Time(s)": 180
    },
    {
        "Altitude(m)": 619096.238526824,
        "Argument of Periapsis(deg)": 0.0019795997235263173,
        "Eccentricity": 0.0,
        "Inclination(deg)": 60.0,
        "Latitude(deg)": -44.4562751886129,
        "Longitude(deg)": -175.06381067432727,
        "Mean Anomaly(deg)": -53.67248323622523,
        "RAAN(deg)": 319.99201906634494,
        "Satellite Name": "Test1 1426",
        "Satellite Number": 1426,
        "Semi-Major Axis(m)": 6980739.136638005,
        "Time(s)": 190
    }
]